NORAD_CAT_ID,OBJECT_NAME,OBJECT_TYPE,EPOCH,MEAN_MOTION,ECCENTRICITY,INCLINATION,RA_OF_ASC_NODE,ARG_OF_PERICENTER,MEAN_ANOMALY,BSTAR,MEAN_MOTION_DOT,MEAN_MOTION_DDOT,TLE_LINE0,TLE_LINE1,TLE_LINE2,SEMIMAJOR_AXIS,PERIOD,APOGEE,PERIGEE,DECAYED
55401.0,STARLINK-5076,PAYLOAD,2024-03-28 20:58:41,14.98330509,0.0003055,69.9991,56.6146,272.3458,87.7351,-0.0001332,-1.682e-05,0.0,0 STARLINK-5076,1 55401U 23014L   24088.87409072 -.00001682  00000-0 -13320-3 0  9995,2 55401  69.9991  56.6146 0003055 272.3458  87.7351 14.98330509 64645,6950.191,96.107,574.18,569.933,0.0
55401.0,STARLINK-5076,PAYLOAD,2024-03-28 22:34:49,14.98331644,0.0003,69.9992,56.447,266.401,93.6805,-0.00011919,-1.515e-05,0.0,0 STARLINK-5076,1 55401U 23014L   24088.94084968 -.00001515  00000-0 -11919-3 0  9993,2 55401  69.9992  56.4470 0003000 266.4010  93.6805 14.98331644 65598,6950.188,96.107,574.138,569.968,0.0
55401.0,STARLINK-5076,PAYLOAD,2024-03-29 04:59:20,14.98338575,0.0002755,70.0001,55.7734,268.301,91.7834,-5.7359e-06,-1.61e-06,0.0,0 STARLINK-5076,1 55401U 23014L   24089.20788164 -.00000161  00000-0 -57359-5 0  9998,2 55401  70.0001  55.7734 0002755 268.3010  91.7834 14.98338575 64695,6950.166,96.106,573.946,570.117,0.0
55401.0,STARLINK-5076,PAYLOAD,2024-03-29 14:36:09,14.98338366,0.0002587,70.001,54.763,274.1983,85.8881,4.8315e-05,4.84e-06,0.0,0 STARLINK-5076,1 55401U 23014L   24089.60843965  .00000484  00000-0  48315-4 0  9990,2 55401  70.0010  54.7630 0002587 274.1983  85.8881 14.98338366 65691,6950.167,96.106,573.83,570.234,0.0
55401.0,STARLINK-5076,PAYLOAD,2024-03-29 22:36:49,14.98328341,0.0002757,70.0006,53.9216,266.2466,93.8378,0.00022311,2.57e-05,0.0,0 STARLINK-5076,1 55401U 23014L   24089.94223965  .00002570  00000-0  22311-3 0  9994,2 55401  70.0006  53.9216 0002757 266.2466  93.8378 14.98328341 65742,6950.198,96.107,573.979,570.147,0.0
55401.0,STARLINK-5076,PAYLOAD,2024-03-30 05:01:21,14.98333077,0.000266,70.0007,53.2484,265.4965,94.589,0.00026791,3.105e-05,0.0,0 STARLINK-5076,1 55401U 23014L   24090.20927591  .00003105  00000-0  26791-3 0  9992,2 55401  70.0007  53.2484 0002660 265.4965  94.5890 14.98333077 64840,6950.183,96.107,573.897,570.2,0.0
55401.0,STARLINK-5076,PAYLOAD,2024-03-30 14:38:10,14.98332548,0.000251,70.0014,52.2353,272.619,87.4682,0.00013205,1.483e-05,0.0,0 STARLINK-5076,1 55401U 23014L   24090.60983913  .00001483  00000-0  13205-3 0  9999,2 55401  70.0014  52.2353 0002510 272.6190  87.4682 14.98332548 65849,6950.185,96.107,573.795,570.306,0.0
55401.0,STARLINK-5076,PAYLOAD,2024-03-30 22:38:50,14.98335578,0.0002321,70.0015,51.3965,269.0704,91.0189,1.9843e-05,1.44e-06,0.0,0 STARLINK-5076,1 55401U 23014L   24090.94364039  .00000144  00000-0  19843-4 0  9996,2 55401  70.0015  51.3965 0002321 269.0704  91.0189 14.98335578 65894,6950.176,96.107,573.654,570.428,0.0
55401.0,STARLINK-5076,PAYLOAD,2024-03-31 05:03:22,14.98332926,0.0002812,70.0009,50.725,276.6847,83.3992,-5.6621e-06,-1.61e-06,0.0,0 STARLINK-5076,1 55401U 23014L   24091.21068189 -.00000161  00000-0 -56621-5 0  9991,2 55401  70.0009  50.7250 0002812 276.6847  83.3992 14.98332926 64994,6950.184,96.107,574.003,570.094,0.0
55401.0,STARLINK-5076,PAYLOAD,2024-03-31 08:15:38,14.98336025,0.0002521,70.001,50.3874,268.6616,91.4255,1.0105e-05,2.8e-07,0.0,0 STARLINK-5076,1 55401U 23014L   24091.34419846  .00000028  00000-0  10105-4 0  9991,2 55401  70.0010  50.3874 0002521 268.6616  91.4255 14.98336025 65959,6950.174,96.107,573.791,570.287,0.0
55401.0,STARLINK-5076,PAYLOAD,2024-03-31 22:40:50,14.98339056,0.0002517,70.001,48.8729,269.8751,90.2119,-1.3672e-05,-2.56e-06,0.0,0 STARLINK-5076,1 55401U 23014L   24091.94503386 -.00000256  00000-0 -13672-4 0  9997,2 55401  70.0010  48.8729 0002517 269.8751  90.2119 14.98339056 66042,6950.165,96.106,573.779,570.281,0.0
55401.0,STARLINK-5076,PAYLOAD,2024-04-01 03:29:14,14.98342082,0.0002615,70.0008,48.367,267.1419,92.9441,-8.6545e-06,-1.96e-06,0.0,0 STARLINK-5076,1 55401U 23014L   24092.14531028 -.00000196  00000-0 -86545-5 0  9997,2 55401  70.0008  48.3670 0002615 267.1419  92.9441 14.98342082 65139,6950.156,96.106,573.838,570.203,0.0
55401.0,STARLINK-5076,PAYLOAD,2024-04-01 14:42:11,14.98335312,0.0002291,70.0026,47.1872,277.0321,83.0578,8.4268e-06,8e-08,0.0,0 STARLINK-5076,1 55401U 23014L   24092.61263347  .00000008  00000-0  84268-5 0  9995,2 55401  70.0026  47.1872 0002291 277.0321  83.0578 14.98335312 66144,6950.176,96.107,573.634,570.449,0.0
55401.0,STARLINK-5076,PAYLOAD,2024-04-01 21:06:43,14.98330466,0.000244,70.0016,46.5151,276.8166,83.2715,8.8007e-05,9.57e-06,0.0,0 STARLINK-5076,1 55401U 23014L   24092.87967343  .00000957  00000-0  88007-4 0  9997,2 55401  70.0016  46.5151 0002440 276.8166  83.2715 14.98330466 65246,6950.191,96.107,573.752,570.361,0.0
55401.0,STARLINK-5076,PAYLOAD,2024-04-02 06:43:32,14.98328766,0.0002572,70.001,45.5051,272.6054,87.481,1.1212e-05,4.1e-07,0.0,0 STARLINK-5076,1 55401U 23014L   24093.28023636  .00000041  00000-0  11212-4 0  9999,2 55401  70.0010  45.5051 0002572 272.6054  87.4810 14.98328766 66247,6950.197,96.107,573.849,570.274,0.0
55401.0,STARLINK-5076,PAYLOAD,2024-04-02 21:08:44,14.98329401,0.0002642,70.0013,43.9904,272.131,87.9546,-2.8684e-05,-4.35e-06,0.0,0 STARLINK-5076,1 55401U 23014L   24093.88107608 -.00000435  00000-0 -28684-4 0  9997,2 55401  70.0013  43.9904 0002642 272.1310  87.9546 14.98329401 66335,6950.195,96.107,573.896,570.224,0.0
55401.0,STARLINK-5076,PAYLOAD,2024-04-03 01:57:09,14.9833029,0.0002627,70.0013,43.4857,269.792,90.2938,-5.7216e-05,-7.76e-06,0.0,0 STARLINK-5076,1 55401U 23014L   24094.08135630 -.00000776  00000-0 -57216-4 0  9997,2 55401  70.0013  43.4857 0002627 269.7920  90.2938 14.98330290 65428,6950.192,96.107,573.883,570.231,0.0
55401.0,STARLINK-5076,PAYLOAD,2024-04-03 06:45:33,14.98326962,0.0002547,70.0014,42.9812,269.5375,90.5493,8.0006e-05,8.62e-06,0.0,0 STARLINK-5076,1 55401U 23014L   24094.28163496  .00000862  00000-0  80006-4 0  9997,2 55401  70.0014  42.9812 0002547 269.5375  90.5493 14.98326962 66394,6950.202,96.107,573.838,570.297,0.0
55401.0,STARLINK-5076,PAYLOAD,2024-04-04 03:35:18,14.98331587,0.0002362,70.0015,40.793,271.1906,88.8982,-3.5138e-05,-5.12e-06,0.0,0 STARLINK-5076,1 55401U 23014L   24095.14951494 -.00000512  00000-0 -35138-4 0  9996,2 55401  70.0015  40.7930 0002362 271.1906  88.8982 14.98331587 65588,6950.188,96.107,573.695,570.411,0.0
55401.0,STARLINK-5076,PAYLOAD,2024-04-04 13:12:06,14.98337208,0.0002626,70.0016,39.783,271.931,88.1548,-9.0923e-05,-1.178e-05,0.0,0 STARLINK-5076,1 55401U 23014L   24095.55007218 -.00001178  00000-0 -90923-4 0  9999,2 55401  70.0016  39.7830 0002626 271.9310  88.1548 14.98337208 66584,6950.171,96.107,573.861,570.21,0.0
55401.0,STARLINK-5076,PAYLOAD,2024-04-04 21:12:46,14.98332835,0.0002682,70.0013,38.9414,267.0582,93.027,5.1674e-05,5.24e-06,0.0,0 STARLINK-5076,1 55401U 23014L   24095.88387131  .00000524  00000-0  51674-4 0  9992,2 55401  70.0013  38.9414 0002682 267.0582  93.0270 14.98332835 66633,6950.184,96.107,573.913,570.185,0.0
55401.0,STARLINK-5076,PAYLOAD,2024-04-05 03:37:18,14.9833466,0.0002644,70.0014,38.268,267.1664,92.9193,7.2567e-05,7.73e-06,0.0,0 STARLINK-5076,1 55401U 23014L   24096.15090909  .00000773  00000-0  72567-4 0  9997,2 55401  70.0014  38.2680 0002644 267.1664  92.9193 14.98334660 65732,6950.178,96.107,573.881,570.206,0.0
55401.0,STARLINK-5076,PAYLOAD,2024-04-05 13:14:07,14.98328457,0.000251,70.0019,37.259,270.1743,89.9128,8.952e-05,9.75e-06,0.0,0 STARLINK-5076,1 55401U 23014L   24096.55147240  .00000975  00000-0  89520-4 0  9993,2 55401  70.0019  37.2590 0002510 270.1743  89.9128 14.98328457 66732,6950.198,96.107,573.807,570.318,0.0
55401.0,STARLINK-5076,PAYLOAD,2024-04-05 19:38:39,14.98315171,0.0002633,70.0017,36.5856,265.9959,94.0899,0.0001932,2.212e-05,0.0,0 STARLINK-5076,1 55401U 23014L   24096.81851498  .00002212  00000-0  19320-3 0  9995,2 55401  70.0017  36.5856 0002633 265.9959  94.0899 14.98315171 65835,6950.239,96.108,573.934,570.274,0.0
55401.0,STARLINK-5076,PAYLOAD,2024-04-05 21:14:47,14.98327448,0.0002592,70.0017,36.4173,270.9298,89.1564,-7.3603e-06,-1.81e-06,0.0,0 STARLINK-5076,1 55401U 23014L   24096.88527471 -.00000181  00000-0 -73603-5 0  9994,2 55401  70.0017  36.4173 0002592 270.9298  89.1564 14.98327448 66781,6950.201,96.107,573.867,570.264,0.0
55401.0,STARLINK-5076,PAYLOAD,2024-04-06 03:39:20,14.98294803,0.0002423,70.0015,35.7439,268.3437,91.7445,0.00056635,6.665e-05,0.0,0 STARLINK-5076,1 55401U 23014L   24097.15232090  .00006665  00000-0  56635-3 0  9990,2 55401  70.0015  35.7439 0002423 268.3437  91.7445 14.98294803 65880,6950.302,96.109,573.851,570.483,0.0
55401.0,STARLINK-5076,PAYLOAD,2024-04-06 05:15:27,14.98326731,0.0002773,70.0016,35.5759,269.9058,90.1783,8.7757e-05,9.54e-06,0.0,0 STARLINK-5076,1 55401U 23014L   24097.21907285  .00000954  00000-0  87757-4 0  9997,2 55401  70.0016  35.5759 0002773 269.9058  90.1783 14.98326731 65893,6950.203,96.107,573.995,570.141,0.0
55401.0,STARLINK-5076,PAYLOAD,2024-04-06 13:16:08,14.9832906,0.0002699,70.0012,34.7344,262.5797,97.5055,-2.5006e-05,-3.91e-06,0.0,0 STARLINK-5076,1 55401U 23014L   24097.55287356 -.00000391  00000-0 -25006-4 0  9990,2 55401  70.0012  34.7344 0002699 262.5797  97.5055 14.98329060 66887,6950.196,96.107,573.937,570.185,0.0
55401.0,STARLINK-5076,PAYLOAD,2024-04-06 22:52:56,14.9833017,0.000278,70.0012,33.7239,270.3022,89.7818,1.4169e-05,7.6e-07,0.0,0 STARLINK-5076,1 55401U 23014L   24097.95343165  .00000076  00000-0  14169-4 0  9991,2 55401  70.0012  33.7239 0002780 270.3022  89.7818 14.98330170 66949,6950.192,96.107,573.99,570.125,0.0
55401.0,STARLINK-5076,PAYLOAD,2024-04-07 05:17:28,14.98334962,0.000265,70.0015,33.0497,269.8094,90.2762,1.3038e-06,-7.7e-07,0.0,0 STARLINK-5076,1 55401U 23014L   24098.22046888 -.00000077  00000-0  13038-5 0  9991,2 55401  70.0015  33.0497 0002650 269.8094  90.2762 14.98334962 66048,6950.178,96.107,573.884,570.201,0.0
